{
  "type": "FeatureCollection",
  "features": [
    {
      "type": "Feature",
      "properties": {
        "norad_id": 22675,
        "name": "COSMOS 2251",
        "group": "cosmos-2251-debris",
        "lat": -24.046245588311823,
        "lon": 144.6683812171835,
        "alt_km": 802.7373484299742,
        "timestamp": "2025-12-11T22:43:47.662814+00:00",
        "meta_object_name": "COSMOS 2251",
        "meta_object_id": "1993-036A",
        "meta_epoch": "2025-12-11T15:04:36.561216",
        "meta_mean_motion": 14.33204304,
        "meta_eccentricity": 0.00239222,
        "meta_inclination": 74.0395,
        "meta_ra_of_asc_node": 317.9144,
        "meta_arg_of_pericenter": 40.5225,
        "meta_mean_anomaly": 319.7702,
        "meta_ephemeris_type": 0,
        "meta_classification_type": "U",
        "meta_norad_cat_id": 22675,
        "meta_element_set_no": 999,
        "meta_rev_at_epoch": 69757,
        "meta_bstar": 9.142395e-05,
        "meta_mean_motion_dot": 2.26e-06,
        "meta_mean_motion_ddot": 0,
        "tle_line1": "1 22675U 93036A   25345.62820094  .00000226  00000+0  91424-4 0  9996",
        "tle_line2": "2 22675  74.0395 317.9144 0023922  40.5225 319.7702 14.33204304697574"
      },
      "geometry": {
        "type": "Point",
        "coordinates": [
          144.6683812171835,
          -24.046245588311823
        ]
      }
    },
    {
      "type": "Feature",
      "properties": {
        "norad_id": 33757,
        "name": "COSMOS 2251 DEB",
        "group": "cosmos-2251-debris",
        "lat": -60.916407094697,
        "lon": 176.0288321971897,
        "alt_km": 790.4943533056603,
        "timestamp": "2025-12-11T22:43:47.662856+00:00",
        "meta_object_name": "COSMOS 2251 DEB",
        "meta_object_id": "1993-036E",
        "meta_epoch": "2025-12-11T10:38:05.442720",
        "meta_mean_motion": 14.32580562,
        "meta_eccentricity": 0.00152055,
        "meta_inclination": 74.0367,
        "meta_ra_of_asc_node": 325.9769,
        "meta_arg_of_pericenter": 339.4681,
        "meta_mean_anomaly": 187.9914,
        "meta_ephemeris_type": 0,
        "meta_classification_type": "U",
        "meta_norad_cat_id": 33757,
        "meta_element_set_no": 999,
        "meta_rev_at_epoch": 87977,
        "meta_bstar": 8.0308355e-05,
        "meta_mean_motion_dot": 1.92e-06,
        "meta_mean_motion_ddot": 0,
        "tle_line1": "1 33757U 93036E   25345.44311855  .00000192  00000+0  80308-4 0  9990",
        "tle_line2": "2 33757  74.0367 325.9769 0015205 339.4681 187.9914 14.32580562879775"
      },
      "geometry": {
        "type": "Point",
        "coordinates": [
          176.0288321971897,
          -60.916407094697
        ]
      }
    },
    {
      "type": "Feature",
      "properties": {
        "norad_id": 33758,
        "name": "COSMOS 2251 DEB",
        "group": "cosmos-2251-debris",
        "lat": 41.25601275621606,
        "lon": 21.972959960726424,
        "alt_km": 727.1510959447578,
        "timestamp": "2025-12-11T22:43:47.662874+00:00",
        "meta_object_name": "COSMOS 2251 DEB",
        "meta_object_id": "1993-036F",
        "meta_epoch": "2025-12-11T15:37:40.224000",
        "meta_mean_motion": 14.51583527,
        "meta_eccentricity": 0.00174048,
        "meta_inclination": 74.0277,
        "meta_ra_of_asc_node": 217.0803,
        "meta_arg_of_pericenter": 284.0089,
        "meta_mean_anomaly": 106.9551,
        "meta_ephemeris_type": 0,
        "meta_classification_type": "U",
        "meta_norad_cat_id": 33758,
        "meta_element_set_no": 999,
        "meta_rev_at_epoch": 88289,
        "meta_bstar": 0.0012023576,
        "meta_mean_motion_dot": 4.799e-05,
        "meta_mean_motion_ddot": 0,
        "tle_line1": "1 33758U 93036F   25345.65116000  .00004799  00000+0  12024-2 0  9994",
        "tle_line2": "2 33758  74.0277 217.0803 0017404 284.0089 106.9551 14.51583527882896"
      },
      "geometry": {
        "type": "Point",
        "coordinates": [
          21.972959960726424,
          41.25601275621606
        ]
      }
    },
    {
      "type": "Feature",
      "properties": {
        "norad_id": 33760,
        "name": "COSMOS 2251 DEB",
        "group": "cosmos-2251-debris",
        "lat": 52.64922465166325,
        "lon": 80.87679083716554,
        "alt_km": 770.6371928397903,
        "timestamp": "2025-12-11T22:43:47.662888+00:00",
        "meta_object_name": "COSMOS 2251 DEB",
        "meta_object_id": "1993-036H",
        "meta_epoch": "2025-12-11T07:39:00.748224",
        "meta_mean_motion": 14.35671432,
        "meta_eccentricity": 0.00198101,
        "meta_inclination": 74.0321,
        "meta_ra_of_asc_node": 284.0639,
        "meta_arg_of_pericenter": 22.7886,
        "meta_mean_anomaly": 95.0314,
        "meta_ephemeris_type": 0,
        "meta_classification_type": "U",
        "meta_norad_cat_id": 33760,
        "meta_element_set_no": 999,
        "meta_rev_at_epoch": 88104,
        "meta_bstar": 0.00019849695,
        "meta_mean_motion_dot": 5.48e-06,
        "meta_mean_motion_ddot": 0,
        "tle_line1": "1 33760U 93036H   25345.31875866  .00000548  00000+0  19850-3 0  9995",
        "tle_line2": "2 33760  74.0321 284.0639 0019810  22.7886  95.0314 14.35671432881041"
      },
      "geometry": {
        "type": "Point",
        "coordinates": [
          80.87679083716554,
          52.64922465166325
        ]
      }
    },
    {
      "type": "Feature",
      "properties": {
        "norad_id": 33761,
        "name": "COSMOS 2251 DEB",
        "group": "cosmos-2251-debris",
        "lat": 31.825190158468764,
        "lon": -96.13324540246792,
        "alt_km": 739.5477991687485,
        "timestamp": "2025-12-11T22:43:47.662901+00:00",
        "meta_object_name": "COSMOS 2251 DEB",
        "meta_object_id": "1993-036J",
        "meta_epoch": "2025-12-11T11:45:08.623296",
        "meta_mean_motion": 14.42540315,
        "meta_eccentricity": 0.00230425,
        "meta_inclination": 74.0365,
        "meta_ra_of_asc_node": 254.482,
        "meta_arg_of_pericenter": 334.868,
        "meta_mean_anomaly": 203.8946,
        "meta_ephemeris_type": 0,
        "meta_classification_type": "U",
        "meta_norad_cat_id": 33761,
        "meta_element_set_no": 999,
        "meta_rev_at_epoch": 88216,
        "meta_bstar": 0.00083004815,
        "meta_mean_motion_dot": 2.736e-05,
        "meta_mean_motion_ddot": 0,
        "tle_line1": "1 33761U 93036J   25345.48968314  .00002736  00000+0  83005-3 0  9999",
        "tle_line2": "2 33761  74.0365 254.4820 0023042 334.8680 203.8946 14.42540315882161"
      },
      "geometry": {
        "type": "Point",
        "coordinates": [
          -96.13324540246792,
          31.825190158468764
        ]
      }
    },
    {
      "type": "Feature",
      "properties": {
        "norad_id": 33762,
        "name": "COSMOS 2251 DEB",
        "group": "cosmos-2251-debris",
        "lat": 62.82640674458616,
        "lon": -14.647078833866907,
        "alt_km": 766.8232796853399,
        "timestamp": "2025-12-11T22:43:47.662913+00:00",
        "meta_object_name": "COSMOS 2251 DEB",
        "meta_object_id": "1993-036K",
        "meta_epoch": "2025-12-11T09:45:29.100384",
        "meta_mean_motion": 14.33663204,
        "meta_eccentricity": 0.00149461,
        "meta_inclination": 74.0416,
        "meta_ra_of_asc_node": 312.4639,
        "meta_arg_of_pericenter": 14.2887,
        "meta_mean_anomaly": 144.8656,
        "meta_ephemeris_type": 0,
        "meta_classification_type": "U",
        "meta_norad_cat_id": 33762,
        "meta_element_set_no": 999,
        "meta_rev_at_epoch": 88028,
        "meta_bstar": 9.6639898e-05,
        "meta_mean_motion_dot": 2.42e-06,
        "meta_mean_motion_ddot": 0,
        "tle_line1": "1 33762U 93036K   25345.40658681  .00000242  00000+0  96640-4 0  9995",
        "tle_line2": "2 33762  74.0416 312.4639 0014946  14.2887 144.8656 14.33663204880289"
      },
      "geometry": {
        "type": "Point",
        "coordinates": [
          -14.647078833866907,
          62.82640674458616
        ]
      }
    },
    {
      "type": "Feature",
      "properties": {
        "norad_id": 33764,
        "name": "COSMOS 2251 DEB",
        "group": "cosmos-2251-debris",
        "lat": -10.228888082005435,
        "lon": 97.08231288337798,
        "alt_km": 752.8022241504141,
        "timestamp": "2025-12-11T22:43:47.662925+00:00",
        "meta_object_name": "COSMOS 2251 DEB",
        "meta_object_id": "1993-036M",
        "meta_epoch": "2025-12-11T12:23:01.154976",
        "meta_mean_motion": 14.39507233,
        "meta_eccentricity": 0.00240053,
        "meta_inclination": 74.0336,
        "meta_ra_of_asc_node": 274.9167,
        "meta_arg_of_pericenter": 240.8748,
        "meta_mean_anomaly": 236.7371,
        "meta_ephemeris_type": 0,
        "meta_classification_type": "U",
        "meta_norad_cat_id": 33764,
        "meta_element_set_no": 999,
        "meta_rev_at_epoch": 88139,
        "meta_bstar": 0.00058161674,
        "meta_mean_motion_dot": 1.794e-05,
        "meta_mean_motion_ddot": 0,
        "tle_line1": "1 33764U 93036M   25345.51598559  .00001794  00000+0  58162-3 0  9995",
        "tle_line2": "2 33764  74.0336 274.9167 0024005 240.8748 236.7371 14.39507233881393"
      },
      "geometry": {
        "type": "Point",
        "coordinates": [
          97.08231288337798,
          -10.228888082005435
        ]
      }
    }
  ]
}